ORBCOMM FM06            
1 25118U 97084G   26115.91160113  .00001365  00000+0  40763-3 0  9999
2 25118  45.0143 304.3437 0000598  52.9066  88.2481 14.47428642486810
ORBCOMM FM04            
1 25159U 98007C   26115.78868484  .00000863  00000+0  34186-3 0  9995
2 25159 107.9613  61.5918 0039232  56.4966 303.9914 14.35629931469074
ORBCOMM FM19            
1 25415U 98046C   26115.77195483  .00000751  00000+0  28462-3 0  9990
2 25415  44.9929 132.6881 0002450 359.5684 169.8896 14.39387743449223
ORBCOMM FM20            
1 25416U 98046D   26115.76975446  .00000482  00000+0  20463-3 0  9999
2 25416  44.9926 140.0481 0001807 281.0381  79.0264 14.37984593449245
ORBCOMM FM27            
1 25481U 98053G   26115.56637537  .00000796  00000+0  30096-3 0  9994
2 25481  45.0048 225.2639 0001349 229.0645 131.0087 14.39038731442657
ORBCOMM FM32            
1 25982U 99065C   26115.87419885  .00000810  00000+0  31791-3 0  9992
2 25982  45.0160  60.8398 0004261 163.6346 196.4640 14.37053109379563
ORBCOMM FM109           
1 40086U 14040A   26115.84125954  .00000470  00000+0  13592-3 0  9993
2 40086  47.0045 338.9635 0001817 329.6037  30.4743 14.58788499626709
ORBCOMM FM114           
1 41179U 15081A   26115.65341389  .00000409  00000+0  12295-3 0  9995
2 41179  47.0045 250.3656 0002547 302.5830  57.4810 14.58797793550083
ORBCOMM FM110           
1 41182U 15081D   26115.64221717  .00000535  00000+0  14961-3 0  9992
2 41182  47.0017 249.8745 0003505 201.6036 158.4702 14.58818240549957
ORBCOMM FM118           
1 41183U 15081E   26115.40295457  .00000586  00000+0  16033-3 0  9997
2 41183  47.0039 251.3309 0003083 165.8804 194.2169 14.58815820550027
ORBCOMM FM112           
1 41184U 15081F   26115.81680577  .00000476  00000+0  13712-3 0  9993
2 41184  46.9978 157.8533 0002731 301.4901  58.5717 14.58813538551309
ORBCOMM FM113           
1 41185U 15081G   26115.79426685  .00000276  00000+0  94754-4 0  9993
2 41185  46.9993 158.3373 0002217 304.2106  55.8570 14.58798905551286
ORBCOMM FM108           
1 41187U 15081J   26115.89378514  .00000688  00000+0  18208-3 0  9999
2 41187  47.0051  69.4209 0003315 310.7290  49.3308 14.58790323552443
ORBCOMM FM117           
1 41188U 15081K   26114.83185990  .00000354  00000+0  11119-3 0  9991
2 41188  47.0011  73.0914 0003883 313.3219  46.7342 14.58808640552333
ORBCOMM FM116           
1 41189U 15081L   26115.56614169  .00000400  00000+0  12091-3 0  9990
2 41189  47.0009 159.4119 0002086 216.1320 143.9425 14.58809658551256
